CZ-2F DEB               
1 46392U 20063D   20252.68571515  .00080707  00000-0  11643-2 0  9993
2 46392  49.8675  44.1513 0116544 169.6230 190.7020 15.47637418   679
CZ-2F DEB               
1 46393U 20063E   20252.71004916  .00138715  00000-0  11507-2 0  9996
2 46393  50.4194  43.3179 0107063 222.3628 136.9129 15.61966934   516
CZ-2F DEB               
1 46394U 20063F   20252.79460691  .00097579  00000-0  10712-2 0  9990
2 46394  50.4628  43.1098 0114104 205.0071 154.5240 15.54666715   562
2020-063G               
1 46395U 20063G   20252.85734338  .00008328  00000-0  54437-4 0  9998
2 46395  50.2070  42.1142 0011892 309.0052  50.9869 15.76752637   722
2020-064A               
1 46396U 20064A   20253.20266983 -.00000597  18911-5  00000+0 0  9994
2 46396  97.3306   5.3398 0326550 164.6036 289.2895 15.31798244   303
2020-064B               
1 46397U 20064B   20253.15718580 -.00000634  20067-5  00000+0 0  9991
2 46397  97.2642   5.3562 0197360 144.2573 305.9646 15.68182580   304
